NORAD_CAT_ID,OBJECT_NAME,OBJECT_TYPE,EPOCH,MEAN_MOTION,ECCENTRICITY,INCLINATION,RA_OF_ASC_NODE,ARG_OF_PERICENTER,MEAN_ANOMALY,BSTAR,MEAN_MOTION_DOT,MEAN_MOTION_DDOT,TLE_LINE0,TLE_LINE1,TLE_LINE2,SEMIMAJOR_AXIS,PERIOD,APOGEE,PERIGEE,DECAYED
50192.0,STARLINK-3259,PAYLOAD,2024-05-15 20:03:15,15.08827231,0.0001824,53.217,334.786,86.1757,273.9444,0.0014614,0.00023039,0.0,0 STARLINK-3259,1 50192U 21125AN  24136.83559667  .00023039  00000-0  14614-2 0  9998,2 50192  53.2170 334.7860 0001824  86.1757 273.9444 15.08827231133576,6917.919,95.438,541.046,538.523,0.0
50192.0,STARLINK-3259,PAYLOAD,2024-05-16 13:32:29,15.08871697,0.0002239,53.2173,331.5188,68.862,291.2611,0.0016238,0.00025672,0.0,0 STARLINK-3259,1 50192U 21125AN  24137.56423046  .00025672  00000-0  16238-2 0  9999,2 50192  53.2173 331.5188 0002239  68.8620 291.2611 15.08871697133680,6917.784,95.436,541.197,538.1,0.0
50192.0,STARLINK-3259,PAYLOAD,2024-05-16 19:54:01,15.08883319,0.0002157,53.2178,330.3298,82.9237,277.2,0.001601,0.00025314,0.0,0 STARLINK-3259,1 50192U 21125AN  24137.82918268  .00025314  00000-0  16010-2 0  9994,2 50192  53.2178 330.3298 0002157  82.9237 277.2000 15.08883319136812,6917.748,95.435,541.105,538.121,0.0
50192.0,STARLINK-3259,PAYLOAD,2024-05-17 11:47:52,15.0884014,0.0003066,53.2168,327.355,90.0363,270.098,-0.00047026,-7.766e-05,0.0,0 STARLINK-3259,1 50192U 21125AN  24138.49157598 -.00007766  00000-0 -47026-3 0  9994,2 50192  53.2168 327.3550 0003066  90.0363 270.0980 15.08840140133829,6917.88,95.438,541.866,537.624,0.0
50192.0,STARLINK-3259,PAYLOAD,2024-05-17 21:20:11,15.08821645,0.0001299,53.2168,325.5727,104.9615,255.1521,0.0026488,0.00042098,0.0,0 STARLINK-3259,1 50192U 21125AN  24138.88902116  .00042098  00000-0  26488-2 0  9994,2 50192  53.2168 325.5727 0001299 104.9615 255.1521 15.08821645133886,6917.936,95.439,540.7,538.903,0.0
50192.0,STARLINK-3259,PAYLOAD,2024-05-18 05:17:06,15.08859707,0.000112,53.2164,324.0857,96.5963,263.5157,0.0031032,0.00049473,0.0,0 STARLINK-3259,1 50192U 21125AN  24139.22021988  .00049473  00000-0  31032-2 0  9997,2 50192  53.2164 324.0857 0001120  96.5963 263.5157 15.08859707133939,6917.82,95.436,540.46,538.91,0.0
50192.0,STARLINK-3259,PAYLOAD,2024-05-18 21:10:57,15.08885673,0.0001135,53.2161,321.1093,87.748,272.3642,0.0027893,0.00044439,0.0,0 STARLINK-3259,1 50192U 21125AN  24139.88261135  .00044439  00000-0  27893-2 0  9996,2 50192  53.2161 321.1093 0001135  87.7480 272.3642 15.08885673134038,6917.741,95.435,540.391,538.821,0.0
50192.0,STARLINK-3259,PAYLOAD,2024-05-19 05:07:52,15.08900926,0.0001852,53.2155,319.6225,55.9655,304.1513,0.0022013,0.00034979,0.0,0 STARLINK-3259,1 50192U 21125AN  24140.21380265  .00034979  00000-0  22013-2 0  9998,2 50192  53.2155 319.6225 0001852  55.9655 304.1513 15.08900926134082,6917.694,95.434,540.84,538.278,0.0
50192.0,STARLINK-3259,PAYLOAD,2024-05-19 21:01:45,15.08810935,0.0001177,53.216,316.6516,56.1316,303.9788,0.0021322,0.00033782,0.0,0 STARLINK-3259,1 50192U 21125AN  24140.87622075  .00033782  00000-0  21322-2 0  9991,2 50192  53.2160 316.6516 0001177  56.1316 303.9788 15.08810935134187,6917.969,95.439,540.648,539.02,0.0
50192.0,STARLINK-3259,PAYLOAD,2024-05-20 11:20:14,15.08840314,0.0001339,53.2159,313.9752,59.0478,301.0645,0.00181,0.00028636,0.0,0 STARLINK-3259,1 50192U 21125AN  24141.47238799  .00028636  00000-0  18100-2 0  9996,2 50192  53.2159 313.9752 0001339  59.0478 301.0645 15.08840314134273,6917.879,95.438,540.671,538.818,0.0
50192.0,STARLINK-3259,PAYLOAD,2024-05-21 11:11:01,15.08844243,0.0001919,53.217,309.5154,45.6965,314.4185,0.00039787,6.05e-05,0.0,0 STARLINK-3259,1 50192U 21125AN  24142.46598387  .00006050  00000-0  39787-3 0  9999,2 50192  53.2170 309.5154 0001919  45.6965 314.4185 15.08844243134428,6917.867,95.437,541.06,538.405,0.0
50192.0,STARLINK-3259,PAYLOAD,2024-05-21 17:32:33,15.08838848,0.0001019,53.2167,308.3255,77.3593,282.7513,0.0012585,0.00019797,0.0,0 STARLINK-3259,1 50192U 21125AN  24142.73094384  .00019797  00000-0  12585-2 0  9995,2 50192  53.2167 308.3255 0001019  77.3593 282.7513 15.08838848137556,6917.884,95.438,540.454,539.044,0.0
50192.0,STARLINK-3259,PAYLOAD,2024-05-22 11:01:48,15.08846415,0.0001244,53.217,305.0547,71.7363,288.3765,0.00069171,0.0001074,0.0,0 STARLINK-3259,1 50192U 21125AN  24143.45958499  .00010740  00000-0  69171-3 0  9994,2 50192  53.2170 305.0547 0001244  71.7363 288.3765 15.08846415134570,6917.861,95.437,540.586,538.865,0.0
50192.0,STARLINK-3259,PAYLOAD,2024-05-23 10:52:35,15.08840306,7.98e-05,53.2173,300.5881,100.7516,259.3566,0.00024147,3.557e-05,0.0,0 STARLINK-3259,1 50192U 21125AN  24144.45318538  .00003557  00000-0  24147-3 0  9991,2 50192  53.2173 300.5881 0000798 100.7516 259.3566 15.08840306134727,6917.879,95.438,540.297,539.192,0.0
50192.0,STARLINK-3259,PAYLOAD,2024-05-23 14:03:21,15.0883589,0.0001099,53.2175,299.9956,86.6303,273.4815,3.8242e-05,3.21e-06,0.0,0 STARLINK-3259,1 50192U 21125AN  24144.58566746  .00000321  00000-0  38242-4 0  9999,2 50192  53.2175 299.9956 0001099  86.6303 273.4815 15.08835890137835,6917.893,95.438,540.518,538.998,0.0
50192.0,STARLINK-3259,PAYLOAD,2024-05-23 20:24:54,15.08836554,0.0001173,53.2183,298.8067,96.274,263.8386,5.4196e-05,5.75e-06,0.0,0 STARLINK-3259,1 50192U 21125AN  24144.85062795  .00000575  00000-0  54196-4 0  9991,2 50192  53.2183 298.8067 0001173  96.2740 263.8386 15.08836554137878,6917.891,95.438,540.567,538.944,0.0
50192.0,STARLINK-3259,PAYLOAD,2024-05-24 10:43:22,15.08839825,0.0001515,53.2192,296.1319,116.7343,243.3804,0.00012709,1.735e-05,0.0,0 STARLINK-3259,1 50192U 21125AN  24145.44678680  .00001735  00000-0  12709-3 0  9995,2 50192  53.2192 296.1319 0001515 116.7343 243.3804 15.08839825134875,6917.881,95.438,540.794,538.698,0.0
50192.0,STARLINK-3259,PAYLOAD,2024-05-24 13:54:08,15.08839179,0.0001099,53.2171,295.5374,106.104,254.0073,0.00011624,1.563e-05,0.0,0 STARLINK-3259,1 50192U 21125AN  24145.57926756  .00001563  00000-0  11624-3 0  9993,2 50192  53.2171 295.5374 0001099 106.1040 254.0073 15.08839179137984,6917.883,95.438,540.508,538.988,0.0
50192.0,STARLINK-3259,PAYLOAD,2024-05-24 15:29:31,15.08838783,9.31e-05,53.2156,295.2397,98.3259,261.7839,0.00010907,1.448e-05,0.0,0 STARLINK-3259,1 50192U 21125AN  24145.64550788  .00001448  00000-0  10907-3 0  9994,2 50192  53.2156 295.2397 0000931  98.3259 261.7839 15.08838783137993,6917.884,95.438,540.393,539.105,0.0
50192.0,STARLINK-3259,PAYLOAD,2024-05-25 13:44:55,15.08839182,9.44e-05,53.2141,291.0765,66.9992,293.11,0.0001702,2.422e-05,0.0,0 STARLINK-3259,1 50192U 21125AN  24146.57286828  .00002422  00000-0  17020-3 0  9994,2 50192  53.2141 291.0765 0000944  66.9992 293.1100 15.08839182138130,6917.883,95.438,540.401,539.095,0.0
50192.0,STARLINK-3259,PAYLOAD,2024-05-25 20:06:28,15.08833969,0.000147,53.2157,289.889,105.7371,254.3784,5.9039e-05,6.52e-06,0.0,0 STARLINK-3259,1 50192U 21125AN  24146.83783138  .00000652  00000-0  59039-4 0  9999,2 50192  53.2157 289.8890 0001470 105.7371 254.3784 15.08833969135084,6917.899,95.438,540.781,538.747,0.0
50192.0,STARLINK-3259,PAYLOAD,2024-05-26 02:28:00,15.0884767,3.98e-05,53.2151,288.7021,176.0484,184.0511,0.00033322,5.021e-05,0.0,0 STARLINK-3259,1 50192U 21125AN  24147.10277922  .00005021  00000-0  33322-3 0  9990,2 50192  53.2151 288.7021 0000398 176.0484 184.0511 15.08847670135122,6917.857,95.437,539.997,539.447,0.0
50192.0,STARLINK-3259,PAYLOAD,2024-05-26 13:35:43,15.08826228,0.0001275,53.215,286.6173,93.1805,266.9333,1.1576e-05,-1.04e-06,0.0,0 STARLINK-3259,1 50192U 21125AN  24147.56647488 -.00000104  00000-0  11576-4 0  9994,2 50192  53.2150 286.6173 0001275  93.1805 266.9333 15.08826228135192,6917.922,95.438,540.67,538.905,0.0
50192.0,STARLINK-3259,PAYLOAD,2024-05-26 15:11:06,15.08830231,0.0001102,53.2163,286.3231,84.9918,275.12,0.00016329,2.311e-05,0.0,0 STARLINK-3259,1 50192U 21125AN  24147.63271391  .00002311  00000-0  16329-3 0  9999,2 50192  53.2163 286.3231 0001102  84.9918 275.1200 15.08830231138298,6917.91,95.438,540.538,539.013,0.0
50192.0,STARLINK-3259,PAYLOAD,2024-05-26 16:46:29,15.08836733,8.29e-05,53.2165,286.0252,80.9254,279.1832,0.00015139,2.122e-05,0.0,0 STARLINK-3259,1 50192U 21125AN  24147.69894985  .00002122  00000-0  15139-3 0  9993,2 50192  53.2165 286.0252 0000829  80.9254 279.1832 15.08836733135211,6917.89,95.438,540.329,539.182,0.0
50192.0,STARLINK-3259,PAYLOAD,2024-05-27 15:01:53,15.08838892,0.0001145,53.2183,281.8597,81.109,279.0032,0.00012105,1.639e-05,0.0,0 STARLINK-3259,1 50192U 21125AN  24148.62631198  .00001639  00000-0  12105-3 0  9994,2 50192  53.2183 281.8597 0001145  81.1090 279.0032 15.08838892138446,6917.884,95.438,540.541,538.957,0.0
50192.0,STARLINK-3259,PAYLOAD,2024-05-27 18:12:39,15.08845491,0.0001214,53.2184,281.2648,78.4799,281.6329,0.00017465,2.493e-05,0.0,0 STARLINK-3259,1 50192U 21125AN  24148.75878683  .00002493  00000-0  17465-3 0  9993,2 50192  53.2184 281.2648 0001214  78.4799 281.6329 15.08845491135370,6917.864,95.437,540.568,538.889,0.0
50192.0,STARLINK-3259,PAYLOAD,2024-05-28 13:17:17,15.08841106,0.0001758,53.2188,277.6891,58.2032,301.9131,0.00011766,1.585e-05,0.0,0 STARLINK-3259,1 50192U 21125AN  24149.55367151  .00001585  00000-0  11766-3 0  9994,2 50192  53.2188 277.6891 0001758  58.2032 301.9131 15.08841106135491,6917.877,95.437,540.958,538.526,0.0
50192.0,STARLINK-3259,PAYLOAD,2024-05-28 14:52:40,15.08840125,0.0001599,53.2196,277.3917,62.2379,297.8776,0.00011155,1.488e-05,0.0,0 STARLINK-3259,1 50192U 21125AN  24149.61991215  .00001488  00000-0  11155-3 0  9999,2 50192  53.2196 277.3917 0001599  62.2379 297.8776 15.08840125138590,6917.88,95.438,540.851,538.639,0.0
50192.0,STARLINK-3259,PAYLOAD,2024-05-29 14:43:27,15.08843653,0.0001169,53.2174,272.9372,85.7632,274.3494,2.4982e-05,1.1e-06,0.0,0 STARLINK-3259,1 50192U 21125AN  24150.61350933  .00000110  00000-0  24982-4 0  9991,2 50192  53.2174 272.9372 0001169  85.7632 274.3494 15.08843653138740,6917.869,95.437,540.543,538.926,0.0
